STARLINK-31204          
1 58731U 24005D   24034.91667824 -.02179168  00000+0 -84195-1 0  9994
2 58731  43.0003  60.8747 0001090 267.8582 200.2450 15.29175238  5333
STARLINK-31180          
1 58732U 24005E   24034.91667824 -.02186076  00000+0 -82722-1 0  9995
2 58732  43.0002  60.8432 0001508 264.2786 216.7641 15.29851918  5346
STARLINK-31164          
1 58733U 24005F   24034.91667824 -.02184817  00000+0 -80955-1 0  9993
2 58733  43.0003  60.8126 0001250 274.5287 219.1090 15.30523905  5341
STARLINK-31152          
1 58734U 24005G   24034.91667824 -.02185503  00000+0 -79292-1 0  9999
2 58734  43.0004  60.7832 0001131 276.9804 228.9052 15.31196924  5338
STARLINK-31157          
1 58735U 24005H   24032.33334491 -.02180978  00000+0 -52912-1 0  9996
2 58735  42.9997  75.5784 0001096 263.3140 334.6284 15.44057061  5010
STARLINK-31076          
1 58736U 24005J   24034.91667824 -.02188061  00000+0 -76088-1 0  9993
2 58736  43.0004  60.7258 0001193 269.0780 260.2648 15.32542735  5398
STARLINK-31101          
1 58737U 24005K   24034.91667824 -.02190515  00000+0 -72982-1 0  9990
2 58737  43.0005  60.6720 0001256 266.0455 285.3680 15.33888871  5343
STARLINK-31108          
1 58738U 24005L   24031.25648807 -.00391881  00000+0 -69641-2 0  9991
2 58738  42.9995  81.8248 0001551 267.1757  92.8926 15.50777485  4761
STARLINK-31042          
1 58739U 24005M   24034.91667824 -.02190292  00000+0 -71417-1 0  9996
2 58739  43.0005  60.6468 0001328 258.1464 303.7836 15.34560389  5335
STARLINK-31159          
1 58740U 24005N   24034.91667824 -.02190548  00000+0 -69896-1 0  9990
2 58740  43.0004  60.6217 0001252 261.8975 310.2017 15.35233134  5444
STARLINK-31148          
1 58741U 24005P   24035.25002315 -.00045442  00000+0 -18276-2 0  9994
2 58741  43.0010  59.4714 0001693 262.9202  42.2888 15.24241172  5384
STARLINK-31151          
1 58742U 24005Q   24034.91667824  .00075929  00000+0  30315-2 0  9998
2 58742  43.0008  61.3047 0001387 286.7088   2.8387 15.24231400  5434
STARLINK-31156          
1 58743U 24005R   24034.91667824 -.00012024  00000+0 -47393-3 0  9993
2 58743  43.0009  61.2660 0001697 268.9433  36.2845 15.24238667  5461
STARLINK-31167          
1 58744U 24005S   24034.91667824  .00003961  00000+0  16937-3 0  9992
2 58744  43.0009  61.2279 0001384 282.2887  38.6026 15.24225120  5460
