[
  {
    "OBJECT_NAME": "STARLINK-31204",
    "OBJECT_ID": "2024-005D",
    "EPOCH": "2024-02-03T22:00:00.999936",
    "MEAN_MOTION": 15.29175238,
    "ECCENTRICITY": 0.000109,
    "INCLINATION": 43.0003,
    "RA_OF_ASC_NODE": 60.8747,
    "ARG_OF_PERICENTER": 267.8582,
    "MEAN_ANOMALY": 200.245,
    "EPHEMERIS_TYPE": 0,
    "CLASSIFICATION_TYPE": "U",
    "NORAD_CAT_ID": 58731,
    "ELEMENT_SET_NO": 999,
    "REV_AT_EPOCH": 533,
    "BSTAR": -0.084195,
    "MEAN_MOTION_DOT": -0.02179168,
    "MEAN_MOTION_DDOT": 0
  },
  {
    "OBJECT_NAME": "STARLINK-31180",
    "OBJECT_ID": "2024-005E",
    "EPOCH": "2024-02-03T22:00:00.999936",
    "MEAN_MOTION": 15.29851918,
    "ECCENTRICITY": 0.0001508,
    "INCLINATION": 43.0002,
    "RA_OF_ASC_NODE": 60.8432,
    "ARG_OF_PERICENTER": 264.2786,
    "MEAN_ANOMALY": 216.7641,
    "EPHEMERIS_TYPE": 0,
    "CLASSIFICATION_TYPE": "U",
    "NORAD_CAT_ID": 58732,
    "ELEMENT_SET_NO": 999,
    "REV_AT_EPOCH": 534,
    "BSTAR": -0.082722,
    "MEAN_MOTION_DOT": -0.02186076,
    "MEAN_MOTION_DDOT": 0
  },
  {
    "OBJECT_NAME": "STARLINK-31164",
    "OBJECT_ID": "2024-005F",
    "EPOCH": "2024-02-03T22:00:00.999936",
    "MEAN_MOTION": 15.30523905,
    "ECCENTRICITY": 0.000125,
    "INCLINATION": 43.0003,
    "RA_OF_ASC_NODE": 60.8126,
    "ARG_OF_PERICENTER": 274.5287,
    "MEAN_ANOMALY": 219.109,
    "EPHEMERIS_TYPE": 0,
    "CLASSIFICATION_TYPE": "U",
    "NORAD_CAT_ID": 58733,
    "ELEMENT_SET_NO": 999,
    "REV_AT_EPOCH": 534,
    "BSTAR": -0.080955,
    "MEAN_MOTION_DOT": -0.02184817,
    "MEAN_MOTION_DDOT": 0
  },
  {
    "OBJECT_NAME": "STARLINK-31152",
    "OBJECT_ID": "2024-005G",
    "EPOCH": "2024-02-03T22:00:00.999936",
    "MEAN_MOTION": 15.31196924,
    "ECCENTRICITY": 0.0001131,
    "INCLINATION": 43.0004,
    "RA_OF_ASC_NODE": 60.7832,
    "ARG_OF_PERICENTER": 276.9804,
    "MEAN_ANOMALY": 228.9052,
    "EPHEMERIS_TYPE": 0,
    "CLASSIFICATION_TYPE": "U",
    "NORAD_CAT_ID": 58734,
    "ELEMENT_SET_NO": 999,
    "REV_AT_EPOCH": 533,
    "BSTAR": -0.079292,
    "MEAN_MOTION_DOT": -0.02185503,
    "MEAN_MOTION_DDOT": 0
  },
  {
    "OBJECT_NAME": "STARLINK-31157",
    "OBJECT_ID": "2024-005H",
    "EPOCH": "2024-02-01T08:00:01.000224",
    "MEAN_MOTION": 15.44057061,
    "ECCENTRICITY": 0.0001096,
    "INCLINATION": 42.9997,
    "RA_OF_ASC_NODE": 75.5784,
    "ARG_OF_PERICENTER": 263.314,
    "MEAN_ANOMALY": 334.6284,
    "EPHEMERIS_TYPE": 0,
    "CLASSIFICATION_TYPE": "U",
    "NORAD_CAT_ID": 58735,
    "ELEMENT_SET_NO": 999,
    "REV_AT_EPOCH": 501,
    "BSTAR": -0.052912,
    "MEAN_MOTION_DOT": -0.02180978,
    "MEAN_MOTION_DDOT": 0
  },
  {
    "OBJECT_NAME": "STARLINK-31076",
    "OBJECT_ID": "2024-005J",
    "EPOCH": "2024-02-03T22:00:00.999936",
    "MEAN_MOTION": 15.32542735,
    "ECCENTRICITY": 0.0001193,
    "INCLINATION": 43.0004,
    "RA_OF_ASC_NODE": 60.7258,
    "ARG_OF_PERICENTER": 269.078,
    "MEAN_ANOMALY": 260.2648,
    "EPHEMERIS_TYPE": 0,
    "CLASSIFICATION_TYPE": "U",
    "NORAD_CAT_ID": 58736,
    "ELEMENT_SET_NO": 999,
    "REV_AT_EPOCH": 539,
    "BSTAR": -0.076088,
    "MEAN_MOTION_DOT": -0.02188061,
    "MEAN_MOTION_DDOT": 0
  },
  {
    "OBJECT_NAME": "STARLINK-31101",
    "OBJECT_ID": "2024-005K",
    "EPOCH": "2024-02-03T22:00:00.999936",
    "MEAN_MOTION": 15.33888871,
    "ECCENTRICITY": 0.0001256,
    "INCLINATION": 43.0005,
    "RA_OF_ASC_NODE": 60.672,
    "ARG_OF_PERICENTER": 266.0455,
    "MEAN_ANOMALY": 285.368,
    "EPHEMERIS_TYPE": 0,
    "CLASSIFICATION_TYPE": "U",
    "NORAD_CAT_ID": 58737,
    "ELEMENT_SET_NO": 999,
    "REV_AT_EPOCH": 534,
    "BSTAR": -0.072982,
    "MEAN_MOTION_DOT": -0.02190515,
    "MEAN_MOTION_DDOT": 0
  },
  {
    "OBJECT_NAME": "STARLINK-31108",
    "OBJECT_ID": "2024-005L",
    "EPOCH": "2024-01-31T06:09:20.569248",
    "MEAN_MOTION": 15.50777485,
    "ECCENTRICITY": 0.0001551,
    "INCLINATION": 42.9995,
    "RA_OF_ASC_NODE": 81.8248,
    "ARG_OF_PERICENTER": 267.1757,
    "MEAN_ANOMALY": 92.8926,
    "EPHEMERIS_TYPE": 0,
    "CLASSIFICATION_TYPE": "U",
    "NORAD_CAT_ID": 58738,
    "ELEMENT_SET_NO": 999,
    "REV_AT_EPOCH": 476,
    "BSTAR": -0.0069641,
    "MEAN_MOTION_DOT": -0.00391881,
    "MEAN_MOTION_DDOT": 0
  },
  {
    "OBJECT_NAME": "STARLINK-31042",
    "OBJECT_ID": "2024-005M",
    "EPOCH": "2024-02-03T22:00:00.999936",
    "MEAN_MOTION": 15.34560389,
    "ECCENTRICITY": 0.0001328,
    "INCLINATION": 43.0005,
    "RA_OF_ASC_NODE": 60.6468,
    "ARG_OF_PERICENTER": 258.1464,
    "MEAN_ANOMALY": 303.7836,
    "EPHEMERIS_TYPE": 0,
    "CLASSIFICATION_TYPE": "U",
    "NORAD_CAT_ID": 58739,
    "ELEMENT_SET_NO": 999,
    "REV_AT_EPOCH": 533,
    "BSTAR": -0.071417,
    "MEAN_MOTION_DOT": -0.02190292,
    "MEAN_MOTION_DDOT": 0
  },
  {
    "OBJECT_NAME": "STARLINK-31159",
    "OBJECT_ID": "2024-005N",
    "EPOCH": "2024-02-03T22:00:00.999936",
    "MEAN_MOTION": 15.35233134,
    "ECCENTRICITY": 0.0001252,
    "INCLINATION": 43.0004,
    "RA_OF_ASC_NODE": 60.6217,
    "ARG_OF_PERICENTER": 261.8975,
    "MEAN_ANOMALY": 310.2017,
    "EPHEMERIS_TYPE": 0,
    "CLASSIFICATION_TYPE": "U",
    "NORAD_CAT_ID": 58740,
    "ELEMENT_SET_NO": 999,
    "REV_AT_EPOCH": 544,
    "BSTAR": -0.069896,
    "MEAN_MOTION_DOT": -0.02190548,
    "MEAN_MOTION_DDOT": 0
  },
  {
    "OBJECT_NAME": "STARLINK-31148",
    "OBJECT_ID": "2024-005P",
    "EPOCH": "2024-02-04T06:00:02.000160",
    "MEAN_MOTION": 15.24241172,
    "ECCENTRICITY": 0.0001693,
    "INCLINATION": 43.001,
    "RA_OF_ASC_NODE": 59.4714,
    "ARG_OF_PERICENTER": 262.9202,
    "MEAN_ANOMALY": 42.2888,
    "EPHEMERIS_TYPE": 0,
    "CLASSIFICATION_TYPE": "U",
    "NORAD_CAT_ID": 58741,
    "ELEMENT_SET_NO": 999,
    "REV_AT_EPOCH": 538,
    "BSTAR": -0.0018276,
    "MEAN_MOTION_DOT": -0.00045442,
    "MEAN_MOTION_DDOT": 0
  },
  {
    "OBJECT_NAME": "STARLINK-31151",
    "OBJECT_ID": "2024-005Q",
    "EPOCH": "2024-02-03T22:00:00.999936",
    "MEAN_MOTION": 15.242314,
    "ECCENTRICITY": 0.0001387,
    "INCLINATION": 43.0008,
    "RA_OF_ASC_NODE": 61.3047,
    "ARG_OF_PERICENTER": 286.7088,
    "MEAN_ANOMALY": 2.8387,
    "EPHEMERIS_TYPE": 0,
    "CLASSIFICATION_TYPE": "U",
    "NORAD_CAT_ID": 58742,
    "ELEMENT_SET_NO": 999,
    "REV_AT_EPOCH": 543,
    "BSTAR": 0.0030315,
    "MEAN_MOTION_DOT": 0.00075929,
    "MEAN_MOTION_DDOT": 0
  },
  {
    "OBJECT_NAME": "STARLINK-31156",
    "OBJECT_ID": "2024-005R",
    "EPOCH": "2024-02-03T22:00:00.999936",
    "MEAN_MOTION": 15.24238667,
    "ECCENTRICITY": 0.0001697,
    "INCLINATION": 43.0009,
    "RA_OF_ASC_NODE": 61.266,
    "ARG_OF_PERICENTER": 268.9433,
    "MEAN_ANOMALY": 36.2845,
    "EPHEMERIS_TYPE": 0,
    "CLASSIFICATION_TYPE": "U",
    "NORAD_CAT_ID": 58743,
    "ELEMENT_SET_NO": 999,
    "REV_AT_EPOCH": 546,
    "BSTAR": -0.00047393,
    "MEAN_MOTION_DOT": -0.00012024,
    "MEAN_MOTION_DDOT": 0
  },
  {
    "OBJECT_NAME": "STARLINK-31167",
    "OBJECT_ID": "2024-005S",
    "EPOCH": "2024-02-03T22:00:00.999936",
    "MEAN_MOTION": 15.2422512,
    "ECCENTRICITY": 0.0001384,
    "INCLINATION": 43.0009,
    "RA_OF_ASC_NODE": 61.2279,
    "ARG_OF_PERICENTER": 282.2887,
    "MEAN_ANOMALY": 38.6026,
    "EPHEMERIS_TYPE": 0,
    "CLASSIFICATION_TYPE": "U",
    "NORAD_CAT_ID": 58744,
    "ELEMENT_SET_NO": 999,
    "REV_AT_EPOCH": 546,
    "BSTAR": 0.00016937,
    "MEAN_MOTION_DOT": 3.961e-05,
    "MEAN_MOTION_DDOT": 0
  }
]